43072,IRIDIUM 116,2017,100.4,860.0,+,86.39,Active,1,LEO,USA,USA,Commercial/Government,Communications,Falcon,1 43072U 17083C   24121.50531351  .00000070  00000+0  17776-4 0  9996,2 43072  86.3918 287.0079 0001989  94.1793 265.9630 14.34218173332706,14.34218173,0.0001989,LEO
43073,IRIDIUM 130,2017,100.4,860.0,+,86.39,Active,1,LEO,USA,USA,Commercial/Government,Communications,Falcon,1 43073U 17083D   24121.54336436  .00000183  00000+0  58197-4 0  9995,2 43073  86.3925 287.1919 0002155  88.0305 272.1138 14.34220165332657,14.34220165,0.0002155,LEO
43074,IRIDIUM 151,2017,100.4,860.0,+,86.39,Active,1,LEO,USA,USA,Commercial/Government,Communications,Falcon,1 43074U 17083E   24121.51799772  .00000181  00000+0  57472-4 0  9992,2 43074  86.3919 287.0427 0002406  99.9896 260.1572 14.34219225332675,14.34219225,0.0002406,LEO
43075,IRIDIUM 134,2017,100.4,860.0,+,86.39,Active,1,LEO,USA,USA,Commercial/Government,Communications,Falcon,1 43075U 17083F   24121.55605172  .00000221  00000+0  71858-4 0  9996,2 43075  86.3921 287.0244 0002027  87.1676 272.9752 14.34219798332643,14.34219798,0.0002027,LEO
43076,IRIDIUM 137,2017,100.4,860.0,+,86.39,Active,1,LEO,USA,USA,Commercial/Government,Communications,Falcon,1 43076U 17083G   24121.56873845  .00000179  00000+0  56743-4 0  9990,2 43076  86.3921 287.0961 0002053 103.9247 256.2177 14.34217292332711,14.34217292,0.0002053,LEO
43077,IRIDIUM 141,2017,100.4,860.0,+,86.39,Active,1,LEO,USA,USA,Commercial/Government,Communications,Falcon,1 43077U 17083H   24121.56239753 -.00000002  00000+0 -79267-5 0  9999,2 43077  86.3914 286.9737 0002118  92.4897 267.6541 14.34217637332712,14.34217637,0.0002118,LEO
43078,IRIDIUM 153,2017,100.4,860.0,+,86.4,Active,1,LEO,USA,USA,Commercial/Government,Communications,Falcon,1 43078U 17083J   24121.44481184  .00000553  00000+0  19031-3 0  9994,2 43078  86.3958 255.4592 0002627  92.1216 268.0281 14.34214807333801,14.34214807,0.0002627,LEO
43079,IRIDIUM 131,2017,100.4,860.0,+,86.39,Active,1,LEO,USA,USA,Commercial/Government,Communications,Falcon,1 43079U 17083K   24121.54971244  .00000099  00000+0  28297-4 0  9997,2 43079  86.3923 287.1131 0002112  96.9835 263.1601 14.34217966332645,14.34217966,0.0002112,LEO
